STARLINK-1736
1 26585C 20070BF  21325.17569111  .00000038  00000-0  25602-5 0  3255
2 26585  53.0545   2.4502 0001572  60.1342 219.4216 15.06399210    18
